{
  "norad_id": 68421,
  "name": "VIREON-2",
  "history": [
    {
      "epoch": "2026-04-14T03:10:33.867552Z",
      "apogee_km": 512.8733259483179,
      "perigee_km": 508.9012523236879,
      "latitude_deg": 6.909296496814064e-06,
      "longitude_deg": 173.60983410590723,
      "height_km": 514.2595946067751,
      "semi_major_axis_km": 6889.024289136002,
      "eccentricity": 0.00028829,
      "inclination_deg": 97.4464,
      "raan_deg": 63.5641,
      "arg_perigee_deg": 98.4001,
      "mean_anomaly_deg": 261.756,
      "mean_motion_rev_day": 15.18330052
    },
    {
      "epoch": "2026-04-16T20:01:30.788832Z",
      "apogee_km": 512.8765893128802,
      "perigee_km": 508.81622249344036,
      "latitude_deg": -5.331164516222569e-05,
      "longitude_deg": -79.13008491942267,
      "height_km": 514.1034643039051,
      "semi_major_axis_km": 6888.98340590316,
      "eccentricity": 0.0002947,
      "inclination_deg": 97.4472,
      "raan_deg": 66.2246,
      "arg_perigee_deg": 94.9467,
      "mean_anomaly_deg": 265.2103,
      "mean_motion_rev_day": 15.18343568
    },
    {
      "epoch": "2026-04-17T19:45:01.340352Z",
      "apogee_km": 512.8524526985348,
      "perigee_km": 508.8073891019203,
      "latitude_deg": 1.886944117557393e-05,
      "longitude_deg": -75.0083484568397,
      "height_km": 514.0421407140149,
      "semi_major_axis_km": 6888.966920900227,
      "eccentricity": 0.00029359,
      "inclination_deg": 97.4475,
      "raan_deg": 67.198,
      "arg_perigee_deg": 93.6919,
      "mean_anomaly_deg": 266.4651,
      "mean_motion_rev_day": 15.18349018
    },
    {
      "epoch": "2026-04-20T20:30:24.733152Z",
      "apogee_km": 512.8197182714302,
      "perigee_km": 508.7216448698182,
      "latitude_deg": 1.135143858793704e-05,
      "longitude_deg": -86.35842362888592,
      "height_km": 513.8442429007769,
      "semi_major_axis_km": 6888.907681570624,
      "eccentricity": 0.00029744,
      "inclination_deg": 97.4482,
      "raan_deg": 70.1834,
      "arg_perigee_deg": 89.7674,
      "mean_anomaly_deg": 270.3901,
      "mean_motion_rev_day": 15.18368603
    },
    {
      "epoch": "2026-04-22T19:57:22.324896Z",
      "apogee_km": 512.7685620271577,
      "perigee_km": 508.68484362412164,
      "latitude_deg": -3.331414737940599e-05,
      "longitude_deg": -78.10016316520766,
      "height_km": 513.7163292291748,
      "semi_major_axis_km": 6888.863702825639,
      "eccentricity": 0.0002964,
      "inclination_deg": 97.4481,
      "raan_deg": 72.1303,
      "arg_perigee_deg": 87.4094,
      "mean_anomaly_deg": 272.7479,
      "mean_motion_rev_day": 15.18383143
    },
    {
      "epoch": "2026-04-22T19:57:22.325760Z",
      "apogee_km": 512.7687686930676,
      "perigee_km": 508.68463695821083,
      "latitude_deg": -3.67411693050991e-05,
      "longitude_deg": -78.10016632951078,
      "height_km": 513.7163198867111,
      "semi_major_axis_km": 6888.863702825639,
      "eccentricity": 0.00029643,
      "inclination_deg": 97.4481,
      "raan_deg": 72.1303,
      "arg_perigee_deg": 87.4094,
      "mean_anomaly_deg": 272.7479,
      "mean_motion_rev_day": 15.18383143
    },
    {
      "epoch": "2026-04-24T08:20:01.294944Z",
      "apogee_km": 512.7230610013439,
      "perigee_km": 508.66140728489245,
      "latitude_deg": -5.020719225760742e-06,
      "longitude_deg": 96.23598495983559,
      "height_km": 513.6353742123438,
      "semi_major_axis_km": 6888.829234143118,
      "eccentricity": 0.0002948,
      "inclination_deg": 97.4479,
      "raan_deg": 73.6228,
      "arg_perigee_deg": 86.0804,
      "mean_anomaly_deg": 274.0767,
      "mean_motion_rev_day": 15.18394539
    },
    {
      "epoch": "2026-04-25T12:48:10.202688Z",
      "apogee_km": 512.6704557388775,
      "perigee_km": 508.64739891731824,
      "latitude_deg": 3.5283119797066406e-05,
      "longitude_deg": 29.197877423182767,
      "height_km": 513.5230614462981,
      "semi_major_axis_km": 6888.795927328098,
      "eccentricity": 0.000292,
      "inclination_deg": 97.4479,
      "raan_deg": 74.791,
      "arg_perigee_deg": 83.7815,
      "mean_anomaly_deg": 276.3752,
      "mean_motion_rev_day": 15.18405551
    },
    {
      "epoch": "2026-04-25T12:48:10.203552Z",
      "apogee_km": 512.6706624027556,
      "perigee_km": 508.64719225344015,
      "latitude_deg": 3.19083639995144e-05,
      "longitude_deg": 29.19787425207881,
      "height_km": 513.5230390500572,
      "semi_major_axis_km": 6888.795927328098,
      "eccentricity": 0.00029203,
      "inclination_deg": 97.4479,
      "raan_deg": 74.791,
      "arg_perigee_deg": 83.7815,
      "mean_anomaly_deg": 276.3752,
      "mean_motion_rev_day": 15.18405551
    },
    {
      "epoch": "2026-04-27T20:09:31.961664Z",
      "apogee_km": 512.5737778272214,
      "perigee_km": 508.5948523956131,
      "latitude_deg": -5.2505506731670255e-05,
      "longitude_deg": -81.14476429700488,
      "height_km": 513.3813467538208,
      "semi_major_axis_km": 6888.7213151114165,
      "eccentricity": 0.0002888,
      "inclination_deg": 97.4479,
      "raan_deg": 77.0624,
      "arg_perigee_deg": 81.7606,
      "mean_anomaly_deg": 278.3955,
      "mean_motion_rev_day": 15.1843022
    },
    {
      "epoch": "2026-04-28T19:52:57.489024Z",
      "apogee_km": 512.541059889626,
      "perigee_km": 508.57317207881897,
      "latitude_deg": -4.793533056777888e-05,
      "longitude_deg": -77.00172827668159,
      "height_km": 513.3114557003845,
      "semi_major_axis_km": 6888.694115984222,
      "eccentricity": 0.000288,
      "inclination_deg": 97.4482,
      "raan_deg": 78.0361,
      "arg_perigee_deg": 80.4888,
      "mean_anomaly_deg": 279.6671,
      "mean_motion_rev_day": 15.18439213
    },
    {
      "epoch": "2026-04-29T21:11:16.092096Z",
      "apogee_km": 512.4834006292258,
      "perigee_km": 508.5665074421622,
      "latitude_deg": -7.484224945407981e-06,
      "longitude_deg": -96.5800922912269,
      "height_km": 513.2425792704797,
      "semi_major_axis_km": 6888.661954035694,
      "eccentricity": 0.0002843,
      "inclination_deg": 97.4487,
      "raan_deg": 79.0745,
      "arg_perigee_deg": 79.2703,
      "mean_anomaly_deg": 280.8851,
      "mean_motion_rev_day": 15.18449847
    },
    {
      "epoch": "2026-04-30T14:35:06.042912Z",
      "apogee_km": 512.459565117164,
      "perigee_km": 508.55480604700915,
      "latitude_deg": 6.293802074359186e-05,
      "longitude_deg": 2.461391929673313,
      "height_km": 513.2040626476809,
      "semi_major_axis_km": 6888.644185582087,
      "eccentricity": 0.00028342,
      "inclination_deg": 97.4489,
      "raan_deg": 79.7886,
      "arg_perigee_deg": 78.6157,
      "mean_anomaly_deg": 281.5396,
      "mean_motion_rev_day": 15.18455722
    },
    {
      "epoch": "2026-05-02T09:17:12.785856Z",
      "apogee_km": 512.3689376570519,
      "perigee_km": 508.5361264414205,
      "latitude_deg": -4.5323845613753275e-05,
      "longitude_deg": 81.93270440557885,
      "height_km": 513.10001886765,
      "semi_major_axis_km": 6888.589532049236,
      "eccentricity": 0.0002782,
      "inclination_deg": 97.4493,
      "raan_deg": 81.5417,
      "arg_perigee_deg": 76.8828,
      "mean_anomaly_deg": 283.2716,
      "mean_motion_rev_day": 15.18473793
    },
    {
      "epoch": "2026-05-03T18:29:56.814144Z",
      "apogee_km": 512.2810163205677,
      "perigee_km": 508.5364028728309,
      "latitude_deg": -3.023460164322552e-06,
      "longitude_deg": -56.25123380219322,
      "height_km": 513.0345142962722,
      "semi_major_axis_km": 6888.545709596699,
      "eccentricity": 0.0002718,
      "inclination_deg": 97.4496,
      "raan_deg": 82.9052,
      "arg_perigee_deg": 75.8807,
      "mean_anomaly_deg": 284.2729,
      "mean_motion_rev_day": 15.18488283
    },
    {
      "epoch": "2026-05-04T10:18:51.689088Z",
      "apogee_km": 512.252064598325,
      "perigee_km": 508.53487578600016,
      "latitude_deg": 2.833712881050446e-05,
      "longitude_deg": 66.51970534236479,
      "height_km": 512.9971725752362,
      "semi_major_axis_km": 6888.530470192162,
      "eccentricity": 0.00026981,
      "inclination_deg": 97.4498,
      "raan_deg": 83.5543,
      "arg_perigee_deg": 75.0689,
      "mean_anomaly_deg": 285.0844,
      "mean_motion_rev_day": 15.18493322
    },
    {
      "epoch": "2026-05-05T14:46:53.745312Z",
      "apogee_km": 512.1647925458037,
      "perigee_km": 508.540069407225,
      "latitude_deg": 5.229516973418201e-05,
      "longitude_deg": -0.4894777018482824,
      "height_km": 512.9291458539841,
      "semi_major_axis_km": 6888.489430976514,
      "eccentricity": 0.0002631,
      "inclination_deg": 97.4498,
      "raan_deg": 84.7228,
      "arg_perigee_deg": 73.7871,
      "mean_anomaly_deg": 286.3653,
      "mean_motion_rev_day": 15.18506892
    },
    {
      "epoch": "2026-05-06T20:49:48.509184Z",
      "apogee_km": 512.1280376261384,
      "perigee_km": 508.52123911228773,
      "latitude_deg": -8.507408608228927e-08,
      "longitude_deg": -91.21820839630996,
      "height_km": 512.882796388974,
      "semi_major_axis_km": 6888.461638369213,
      "eccentricity": 0.0002618,
      "inclination_deg": 97.4497,
      "raan_deg": 85.9563,
      "arg_perigee_deg": 73.0871,
      "mean_anomaly_deg": 287.065,
      "mean_motion_rev_day": 15.18516082
    },
    {
      "epoch": "2026-05-07T20:33:09.238752Z",
      "apogee_km": 512.0879790973577,
      "perigee_km": 508.5225213886324,
      "latitude_deg": 4.795588622962674e-05,
      "longitude_deg": -87.05503667922521,
      "height_km": 512.8281059242205,
      "semi_major_axis_km": 6888.442250242995,
      "eccentricity": 0.0002588,
      "inclination_deg": 97.4497,
      "raan_deg": 86.9301,
      "arg_perigee_deg": 71.6912,
      "mean_anomaly_deg": 288.4604,
      "mean_motion_rev_day": 15.18522493
    },
    {
      "epoch": "2026-05-08T20:16:29.627040Z",
      "apogee_km": 512.0359365735967,
      "perigee_km": 508.532485545652,
      "latitude_deg": -3.254474623782875e-05,
      "longitude_deg": -82.89042176680252,
      "height_km": 512.7768997422348,
      "semi_major_axis_km": 6888.4212110596245,
      "eccentricity": 0.0002543,
      "inclination_deg": 97.4496,
      "raan_deg": 87.9039,
      "arg_perigee_deg": 70.3061,
      "mean_anomaly_deg": 289.8447,
      "mean_motion_rev_day": 15.1852945
    },
    {
      "epoch": "2026-05-09T19:59:49.655040Z",
      "apogee_km": 511.99273804640234,
      "perigee_km": 508.5444022179936,
      "latitude_deg": 4.204972530565352e-05,
      "longitude_deg": -78.72422091229629,
      "height_km": 512.7313917139348,
      "semi_major_axis_km": 6888.405570132198,
      "eccentricity": 0.0002503,
      "inclination_deg": 97.4494,
      "raan_deg": 88.8778,
      "arg_perigee_deg": 68.9144,
      "mean_anomaly_deg": 291.2358,
      "mean_motion_rev_day": 15.18534622
    }
  ]
}